{"fetched_at":"2026-03-29T02:12:04Z","count":15717,"tles":[{"name":"GSAT0216 (GALILEO 20)","line1":"1 43056U 17079B   26087.35847726 -.00000020  00000+0  00000+0 0  9998","line2":"2 43056  55.1004 223.7286 0001951 299.6924  60.2331  1.70474678 51625","category":"GPS"}]}